ALOS (DAICHI)           
1 28931U 06002A   23359.82496316  .00002299  00000+0  43865-3 0  9992
2 28931  98.0149 311.9748 0001569  52.3089 307.8257 14.64910247955815
